
ONEWEB-0668             
1 56711U 23068B   25016.37332651  .00000133  00000+0  31530-3 0  9994
2 56711  87.9103 331.7377 0002403  81.7926 278.3478 13.16595163 83777
ONEWEB-0676             
1 56712U 23068C   25016.35352701  .00000065  00000+0  13590-3 0  9991
2 56712  87.9114 331.7628 0001396  67.5142 292.6137 13.16594280 83692
ONEWEB-0677             
1 56713U 23068D   25016.44964456 -.00000339  00000+0 -86498-3 0  9991
2 56713  87.9240  17.2605 0001792  79.9601 280.1735 13.20772124 81594
ONEWEB-0678             
1 56714U 23068E   25016.42650109 -.00000005  00000+0 -48551-4 0  9996
2 56714  87.9084   2.0620 0001544  95.0272 265.1035 13.15547760 81347
ONEWEB-0679             
1 56715U 23068F   25016.39864814  .00000179  00000+0  43403-3 0  9993
2 56715  87.9111 331.7512 0002108  65.9434 294.1918 13.16593729 83727
ONEWEB-0680             
1 56716U 23068G   25016.39357694  .00000078  00000+0  15621-3 0  9996
2 56716  87.9296 346.9715 0002538  79.8168 280.3253 13.21828255 82820
ONEWEB-0681             
1 56717U 23068H   25016.47953450  .00000127  00000+0  27685-3 0  9996
2 56717  87.9318 346.9499 0001602  48.7003 311.4268 13.21823039 82826
ONEWEB-0682             
1 56718U 23068J   25016.45265167 -.00000062  00000+0 -19755-3 0  9995
2 56718  87.9081   2.0922 0002271  80.4589 279.6798 13.15549847 81513
ONEWEB-0683             
1 56719U 23068K   25016.47404047  .00000233  00000+0  58436-3 0  9997
2 56719  87.9079   2.0597 0002083  82.9162 277.2205 13.15548223 81484
ONEWEB-0684             
1 56720U 23068L   25016.48195363  .00000240  00000+0  60430-3 0  9993
2 56720  87.9054   2.1142 0002050 131.7771 228.3534 13.15547101 81317
ONEWEB-0686             
1 56721U 23068M   25016.38835527  .00000145  00000+0  34629-3 0  9991
2 56721  87.9109 331.7898 0002086  87.5706 272.5663 13.16593100 83714
ONEWEB-0694             
1 56722U 23068N   25016.43111061  .00000070  00000+0  15053-3 0  9995
2 56722  87.9108 331.7004 0002189  76.1325 284.0050 13.16594951 83777
ONEWEB-0696             
1 56723U 23068P   25016.43917528 -.00000053  00000+0 -17526-3 0  9998
2 56723  87.9081   2.1181 0001574  93.9863 266.1447 13.15547961 81423
ONEWEB-0703             
1 56724U 23068Q   25016.44868025 -.00000085  00000+0 -26066-3 0  9991
2 56724  87.9081   2.1360 0000696 109.3072 250.8134 13.15547553 81319
ONEWEB-0721             
1 56725U 23068R   25016.62624384  .00000101  00000+0  98546-4 0  9990
2 56725  86.6739 250.5611 0006895 264.7864  95.2509 13.69057556 89599
IRIDIUM 181             
1 56726U 23068S   25015.77053087  .00000558  00000+0  15995-3 0  9994
2 56726  86.4522 272.9187 0002532  87.8862 272.2629 14.43302274 87805
IRIDIUM 177             
1 56727U 23068T   25016.50831114  .00000775  00000+0  98578-4 0  9992
2 56727  86.1965 214.0632 0001927  82.5519 277.5921 14.80205536 89937
IRIDIUM 174             
1 56728U 23068U   25016.50287663  .00000758  00000+0  96226-4 0  9996
2 56728  86.1973 214.1866 0002452  84.6746 275.4755 14.80229592 89936
IRIDIUM 178             
1 56729U 23068V   25015.95663730  .00000063  00000+0  47844-5 0  9990
2 56729  86.5758 241.9726 0002926  80.3363 279.8188 14.80230513 89853
IRIDIUM 179             
1 56730U 23068W   25016.62721570  .00002001  00000+0  25973-3 0  9995
2 56730  86.6761 248.5083 0002301  89.0493 271.0992 14.80258960 89950
2023-069A               
1 56731U 23069A   25016.37793210  .00019003  00000+0  40509-3 0  9991
2 56731  41.0003  15.8844 0028299 176.2438 183.8604 15.44019740 93279
2023-069B               
1 56732U 23069B   25016.57147283  .00013624  00000+0  77059-3 0  9990
2 56732  41.0094 125.1320 0007503 357.1163   2.9607 15.12783954 92064
2023-069C               
1 56733U 23069C   25016.27135150  .00108043  00000+0  82859-3 0  9992
2 56733  40.9975 348.8901 0032304 221.9555 137.8804 15.70237841 93566
NEXTSAT-2               
1 56743U 23072A   25016.59662298  .00008985  00000+0  44423-3 0  9999
2 56743  97.5362 206.7073 0008147  39.4473 320.7353 15.18037319 90958
SNIPE 4                 
1 56744U 23072B   25016.52228473  .00016733  00000+0  73397-3 0  9998
2 56744  97.5409 208.4691 0010617  14.7565 345.3979 15.21994054 91027
SNIPE 2                 
1 56745U 23072C   25016.55188376  .00018322  00000+0  78930-3 0  9993
2 56745  97.5578 209.3897 0007606  31.8339 328.3356 15.22614862 91045
2023-072D               
1 56746U 23072D   25016.54126290  .00022190  00000+0  83414-3 0  9991
2 56746  97.5378 210.2218 0006576  30.8350 329.3274 15.27156228 91142
2023-072E               
1 56747U 23072E   25016.58415642  .00016897  00000+0  69187-3 0  9996
2 56747  97.5395 209.5965 0007367  35.8455 324.3275 15.24353158 91102
2023-072F               
1 56748U 23072F   25016.54445514  .00011425  00000+0  53995-3 0  9996
2 56748  97.5242 206.6439 0008544  40.1305 320.0559 15.19536119 91000
2023-072G               
1 56749U 23072G   25016.60165689  .00018593  00000+0  74827-3 0  9996
2 56749  97.5214 208.3765 0007887  36.5390 323.6384 15.24909708 91125
TROPICS-03              
1 56753U 23073B   25016.24103159  .00046563  00000+0  13046-2 0  9999
2 56753  32.7337 324.6942 0007889 273.4423  86.5352 15.35427593 91272
TROPICS-07              
1 56754U 23073C   25016.17648205  .00053868  00000+0  13080-2 0  9992
2 56754  32.7309 313.2689 0010017 281.4421  78.5133 15.39775094 91407
KONDOR-FKA NO. 1        
1 56756U 23074A   25016.54518415  .00008720  00000+0  41146-3 0  9997
2 56756  97.4372 213.5568 0001853  90.3584 269.7863 15.19694918 91227
ARABSAT-7B (BADR-8)     
1 56757U 23075A   25014.91160446  .00000144  00000+0  00000+0 0  9997
2 56757   0.0729  29.6116 0004774 295.8772 143.2603  1.00279733  5935
IRNSS-1J (NVS-01)       
1 56759U 23076A   25016.55869928 -.00000333  00000+0  00000+0 0  9994
2 56759   3.4500 261.1558 0008060  15.8438 169.8878  1.00273488  5934
STARLINK-6197           
1 56767U 23078A   25016.29179895  .00000753  00000+0  70901-4 0  9990
2 56767  70.0006 336.9157 0002731 269.5490  90.5356 14.98335135 89667
STARLINK-6198           
1 56768U 23078B   25016.14945773  .00000211  00000+0  25484-4 0  9996
2 56768  70.0007 297.0888 0002589 268.1997  91.8865 14.98334759 90634
STARLINK-5978           
1 56769U 23078C   25016.28345024 -.00002327  00000+0 -18730-3 0  9992
2 56769  70.0004 336.8879 0002946 265.4640  94.6183 14.98330305 89664
STARLINK-6342           
1 56770U 23078D   25016.28361623 -.00000684  00000+0 -49548-4 0  9993
2 56770  70.0005 336.8883 0002910 263.5974  96.4854 14.98339981 89666
STARLINK-6339           
1 56771U 23078E   25016.58334491  .00144394  00000+0  64092-2 0  9994
2 56771  69.9994 275.7794 0003723 262.3619 200.2454 15.20805103  5815
STARLINK-6275           
1 56772U 23078F   25016.27928021 -.00000608  00000+0 -43193-4 0  9991
2 56772  70.0009 336.8727 0002743 263.3209  96.7637 14.98329261 89664
STARLINK-6296           
1 56773U 23078G   25016.11587334 -.00000444  00000+0 -29387-4 0  9990
2 56773  69.9995 277.4765 0002705 265.9756  94.1094 14.98328615 91115
STARLINK-6190           
1 56774U 23078H   25016.29281588  .00000745  00000+0  71605-4 0  9994
2 56774  70.0011 336.9180 0002678 271.3435  88.7417 14.97530240 89667
STARLINK-6292           
1 56775U 23078J   25016.11169836  .00000875  00000+0  81064-4 0  9991
2 56775  69.9994 277.4614 0002597 263.7484  96.3379 14.98340857 91114
STARLINK-6274           
1 56776U 23078K   25016.20372487  .00000295  00000+0  32536-4 0  9996
2 56776  70.0004 297.2666 0002615 269.9409  90.1450 14.98331511 90638
STARLINK-5582           
1 56777U 23078L   25016.22899096  .00000801  00000+0  74867-4 0  9995
2 56777  70.0009 317.2265 0002662 259.3669 100.7190 14.98332565 90140
STARLINK-6304           
1 56778U 23078M   25016.19954622 -.00000287  00000+0 -16219-4 0  9996
2 56778  70.0005 297.2523 0002729 270.0181  90.0665 14.98340020 90631
STARLINK-6231           
1 56779U 23078N   25016.17450401 -.00001113  00000+0 -85491-4 0  9998
2 56779  70.0004 297.1636 0002675 268.3437  91.7416 14.98332209 90620
STARLINK-5963           
1 56780U 23078P   25016.22497068  .00000842  00000+0  78318-4 0  9992
2 56780  70.0007 316.8310 0002653 267.6929  92.3926 14.98330867 90156
STARLINK-5989           
1 56781U 23078Q   25016.27487671  .00001421  00000+0  12687-3 0  9997
2 56781  70.0010 316.9835 0002669 261.1911  98.8946 14.98337586 90159
STARLINK-6352           
1 56782U 23078R   25016.19537275  .00000483  00000+0  48285-4 0  9996
2 56782  70.0001 297.2361 0002764 268.5929  91.4913 14.98335303 90632
STARLINK-6357           
1 56783U 23078S   25016.18702989 -.00002627  00000+0 -21240-3 0  9997
2 56783  70.0002 297.2078 0002620 270.0662  90.0197 14.98343855 90632
STARLINK-6354           
1 56784U 23078T   25016.19119746  .00000771  00000+0  72400-4 0  9993
2 56784  69.9998 297.2211 0002753 268.5543  91.5301 14.98338661 90632
STARLINK-5931           
1 56785U 23078U   25016.21646664  .00001076  00000+0  97927-4 0  9991
2 56785  70.0011 317.1817 0002631 266.4129  93.6729 14.98335983 90831
STARLINK-6341           
1 56786U 23078V   25016.18284696  .00001481  00000+0  13184-3 0  9993
2 56786  69.9999 297.1925 0003195 269.7209  90.3584 14.98338388 90635
STARLINK-6326           
1 56787U 23078W   25016.15777842  .00004661  00000+0  39783-3 0  9997
2 56787  70.0005 297.1075 0002534 270.3805  89.7064 14.98365829 90634
STARLINK-6336           
1 56788U 23078X   25016.17867802  .00001062  00000+0  96789-4 0  9998
2 56788  69.9999 297.1767 0002777 264.3477  95.7365 14.98334527 90631
STARLINK-6325           
1 56789U 23078Y   25016.15340618  .00000172  00000+0  22189-4 0  9992
2 56789  69.9994 277.2053 0002821 270.0816  90.0020 14.98335855 91794
